{
    "links": {
        "self": "http://www.neowsapp.com/rest/v1/neo/3374352?api_key=iIulBulltgU6a56xZRHN4H3l9WmuAYTsLGpBGhQ2"
    },
    "id": "3374352",
    "neo_reference_id": "3374352",
    "name": "(2007 HY3)",
    "designation": "2007 HY3",
    "nasa_jpl_url": "http://ssd.jpl.nasa.gov/sbdb.cgi?sstr=3374352",
    "absolute_magnitude_h": 25.6,
    "estimated_diameter": {
        "kilometers": {
            "estimated_diameter_min": 0.0201629919,
            "estimated_diameter_max": 0.0450858206
        },
        "meters": {
            "estimated_diameter_min": 20.1629919443,
            "estimated_diameter_max": 45.0858206172
        },
        "miles": {
            "estimated_diameter_min": 0.0125286985,
            "estimated_diameter_max": 0.0280150214
        },
        "feet": {
            "estimated_diameter_min": 66.1515504905,
            "estimated_diameter_max": 147.9193637137
        }
    },
    "is_potentially_hazardous_asteroid": false,
    "close_approach_data": [
        {
            "close_approach_date": "2007-04-20",
            "close_approach_date_full": "2007-Apr-20 18:38",
            "epoch_date_close_approach": 1177094280000,
            "relative_velocity": {
                "kilometers_per_second": "6.2523834039",
                "kilometers_per_hour": "22508.5802540341",
                "miles_per_hour": "13985.9564361803"
            },
            "miss_distance": {
                "astronomical": "0.050376794",
                "lunar": "19.596572866",
                "kilometers": "7536261.07982878",
                "miles": "4682815.489965964"
            },
            "orbiting_body": "Earth"
        }
    ],
    "orbital_data": {
        "orbit_id": "6",
        "orbit_determination_date": "2017-04-06 09:06:32",
        "first_observation_date": "2007-04-18",
        "last_observation_date": "2007-04-19",
        "data_arc_in_days": 1,
        "observations_used": 17,
        "orbit_uncertainty": "9",
        "minimum_orbit_intersection": ".0423353",
        "jupiter_tisserand_invariant": "4.742",
        "epoch_osculation": "2454209.5",
        "eccentricity": ".2455830897699743",
        "semi_major_axis": "1.38549544725345",
        "inclination": "9.531976528147474",
        "ascending_node_longitude": "29.7471622596096",
        "orbital_period": "595.6704846219965",
        "perihelion_distance": "1.045241194454715",
        "perihelion_argument": "190.0700274913631",
        "aphelion_distance": "1.725749700052184",
        "perihelion_time": "2454219.171058418258",
        "mean_anomaly": "354.1551896216878",
        "mean_motion": ".6043609836207523",
        "equinox": "J2000",
        "orbit_class": {
            "orbit_class_type": "AMO",
            "orbit_class_description": "Near-Earth asteroid orbits similar to that of 1221 Amor",
            "orbit_class_range": "1.017 AU < q (perihelion) < 1.3 AU"
        }
    },
    "is_sentry_object": false
}